[{"OBJECT_NAME":"STARLINK-35094","OBJECT_ID":"2025-191S","EPOCH":"2026-03-09T15:53:13.704288","MEAN_MOTION":15.05657783,"ECCENTRICITY":0.00023323,"INCLINATION":97.6026,"RA_OF_ASC_NODE":301.4709,"ARG_OF_PERICENTER":96.4121,"MEAN_ANOMALY":263.7371,"EPHEMERIS_TYPE":0,"CLASSIFICATION_TYPE":"U","NORAD_CAT_ID":65395,"ELEMENT_SET_NO":999,"REV_AT_EPOCH":3027,"BSTAR":0.0001593648,"MEAN_MOTION_DOT":2.24e-5,"MEAN_MOTION_DDOT":0},{"OBJECT_NAME":"ICON","OBJECT_ID":"2019-068A","EPOCH":"2026-03-09T22:35:01.599072","MEAN_MOTION":15.06276737,"ECCENTRICITY":0.00134076,"INCLINATION":26.9847,"RA_OF_ASC_NODE":325.9297,"ARG_OF_PERICENTER":187.0145,"MEAN_ANOMALY":173.0229,"EPHEMERIS_TYPE":0,"CLASSIFICATION_TYPE":"U","NORAD_CAT_ID":44628,"ELEMENT_SET_NO":999,"REV_AT_EPOCH":35105,"BSTAR":0.00030799545,"MEAN_MOTION_DOT":4.879e-5,"MEAN_MOTION_DDOT":0}]
